{
  "type": "FeatureCollection",
  "features": [
    {
      "type": "Feature",
      "properties": {
        "norad_id": 40362,
        "name": "YAOGAN-26",
        "group": "resource",
        "lat": 18.260484414495338,
        "lon": -21.201152244942136,
        "alt_km": 445.33029111449105,
        "timestamp": "2025-12-06T05:40:08.893555+00:00",
        "meta_object_name": "YAOGAN-26",
        "meta_object_id": "2014-088A",
        "meta_epoch": "2025-12-05T06:10:52.840992",
        "meta_mean_motion": 15.38904494,
        "meta_eccentricity": 0.00071553,
        "meta_inclination": 97.0636,
        "meta_ra_of_asc_node": 340.2004,
        "meta_arg_of_pericenter": 50.2105,
        "meta_mean_anomaly": 309.977,
        "meta_ephemeris_type": 0,
        "meta_classification_type": "U",
        "meta_norad_cat_id": 40362,
        "meta_element_set_no": 999,
        "meta_rev_at_epoch": 60779,
        "meta_bstar": 0.00075734816,
        "meta_mean_motion_dot": 0.00029172,
        "meta_mean_motion_ddot": 0,
        "tle_line1": "1 40362U 14088A   25339.25755603  .00029172  00000+0  75735-3 0  9991",
        "tle_line2": "2 40362  97.0636 340.2004 0007155  50.2105 309.9770 15.38904494607793"
      },
      "geometry": {
        "type": "Point",
        "coordinates": [
          -21.201152244942136,
          18.260484414495338
        ]
      }
    },
    {
      "type": "Feature",
      "properties": {
        "norad_id": 40376,
        "name": "SMAP",
        "group": "resource",
        "lat": -57.69575714649676,
        "lon": 151.98848171276038,
        "alt_km": 690.294543700812,
        "timestamp": "2025-12-06T05:40:08.893566+00:00",
        "meta_object_name": "SMAP",
        "meta_object_id": "2015-003A",
        "meta_epoch": "2025-12-05T07:14:54.083040",
        "meta_mean_motion": 14.63330289,
        "meta_eccentricity": 0.00012089,
        "meta_inclination": 98.1291,
        "meta_ra_of_asc_node": 344.1331,
        "meta_arg_of_pericenter": 87.5071,
        "meta_mean_anomaly": 272.6269,
        "meta_ephemeris_type": 0,
        "meta_classification_type": "U",
        "meta_norad_cat_id": 40376,
        "meta_element_set_no": 999,
        "meta_rev_at_epoch": 57926,
        "meta_bstar": 0.00021892276,
        "meta_mean_motion_dot": 1.083e-05,
        "meta_mean_motion_ddot": 0,
        "tle_line1": "1 40376U 15003A   25339.30201485  .00001083  00000+0  21892-3 0  9990",
        "tle_line2": "2 40376  98.1291 344.1331 0001208  87.5071 272.6269 14.63330289579262"
      },
      "geometry": {
        "type": "Point",
        "coordinates": [
          151.98848171276038,
          -57.69575714649676
        ]
      }
    },
    {
      "type": "Feature",
      "properties": {
        "norad_id": 40536,
        "name": "KOMPSAT-3A",
        "group": "resource",
        "lat": -30.083140609044694,
        "lon": 129.7432438502715,
        "alt_km": 440.6454253307511,
        "timestamp": "2025-12-06T05:40:08.893581+00:00",
        "meta_object_name": "KOMPSAT-3A",
        "meta_object_id": "2015-014A",
        "meta_epoch": "2025-12-05T06:58:46.001280",
        "meta_mean_motion": 15.43543788,
        "meta_eccentricity": 0.00040084,
        "meta_inclination": 97.6777,
        "meta_ra_of_asc_node": 313.2284,
        "meta_arg_of_pericenter": 142.7209,
        "meta_mean_anomaly": 217.4316,
        "meta_ephemeris_type": 0,
        "meta_classification_type": "U",
        "meta_norad_cat_id": 40536,
        "meta_element_set_no": 999,
        "meta_rev_at_epoch": 59180,
        "meta_bstar": 0.00067738783,
        "meta_mean_motion_dot": 0.00030398,
        "meta_mean_motion_ddot": 0,
        "tle_line1": "1 40536U 15014A   25339.29081020  .00030398  00000+0  67739-3 0  9990",
        "tle_line2": "2 40536  97.6777 313.2284 0004008 142.7209 217.4316 15.43543788591808"
      },
      "geometry": {
        "type": "Point",
        "coordinates": [
          129.7432438502715,
          -30.083140609044694
        ]
      }
    },
    {
      "type": "Feature",
      "properties": {
        "norad_id": 40697,
        "name": "SENTINEL-2A",
        "group": "resource",
        "lat": 32.530765059383114,
        "lon": -121.61909076570045,
        "alt_km": 786.583348471353,
        "timestamp": "2025-12-06T05:40:08.893591+00:00",
        "meta_object_name": "SENTINEL-2A",
        "meta_object_id": "2015-028A",
        "meta_epoch": "2025-12-05T07:09:59.613696",
        "meta_mean_motion": 14.30822881,
        "meta_eccentricity": 0.00010357,
        "meta_inclination": 98.5701,
        "meta_ra_of_asc_node": 51.9373,
        "meta_arg_of_pericenter": 94.1657,
        "meta_mean_anomaly": 265.9644,
        "meta_ephemeris_type": 0,
        "meta_classification_type": "U",
        "meta_norad_cat_id": 40697,
        "meta_element_set_no": 999,
        "meta_rev_at_epoch": 54600,
        "meta_bstar": 0.0001440291,
        "meta_mean_motion_dot": 3.34e-06,
        "meta_mean_motion_ddot": 0,
        "tle_line1": "1 40697U 15028A   25339.29860664  .00000334  00000+0  14403-3 0  9999",
        "tle_line2": "2 40697  98.5701  51.9373 0001035  94.1657 265.9644 14.30822881546005"
      },
      "geometry": {
        "type": "Point",
        "coordinates": [
          -121.61909076570045,
          32.530765059383114
        ]
      }
    },
    {
      "type": "Feature",
      "properties": {
        "norad_id": 40701,
        "name": "GAOFEN-8",
        "group": "resource",
        "lat": -19.466829318516442,
        "lon": -24.676875720161174,
        "alt_km": 450.58378718791937,
        "timestamp": "2025-12-06T05:40:08.893602+00:00",
        "meta_object_name": "GAOFEN-8",
        "meta_object_id": "2015-030A",
        "meta_epoch": "2025-12-05T06:56:49.300800",
        "meta_mean_motion": 15.38170969,
        "meta_eccentricity": 0.00112771,
        "meta_inclination": 97.6905,
        "meta_ra_of_asc_node": 157.0689,
        "meta_arg_of_pericenter": 164.1161,
        "meta_mean_anomaly": 196.0439,
        "meta_ephemeris_type": 0,
        "meta_classification_type": "U",
        "meta_norad_cat_id": 40701,
        "meta_element_set_no": 999,
        "meta_rev_at_epoch": 58156,
        "meta_bstar": 0.00077861995,
        "meta_mean_motion_dot": 0.00029317,
        "meta_mean_motion_ddot": 0,
        "tle_line1": "1 40701U 15030A   25339.28945950  .00029317  00000+0  77862-3 0  9999",
        "tle_line2": "2 40701  97.6905 157.0689 0011277 164.1161 196.0439 15.38170969581560"
      },
      "geometry": {
        "type": "Point",
        "coordinates": [
          -24.676875720161174,
          -19.466829318516442
        ]
      }
    },
    {
      "type": "Feature",
      "properties": {
        "norad_id": 40718,
        "name": "CARBONITE 1 (CBNT-1)",
        "group": "resource",
        "lat": -7.782220925506632,
        "lon": 162.6176111404893,
        "alt_km": 633.1520451916012,
        "timestamp": "2025-12-06T05:40:08.893612+00:00",
        "meta_object_name": "CARBONITE 1 (CBNT-1)",
        "meta_object_id": "2015-032D",
        "meta_epoch": "2025-12-05T07:01:44.812992",
        "meta_mean_motion": 14.82688912,
        "meta_eccentricity": 0.0013927,
        "meta_inclination": 97.6398,
        "meta_ra_of_asc_node": 160.6652,
        "meta_arg_of_pericenter": 206.4999,
        "meta_mean_anomaly": 153.5504,
        "meta_ephemeris_type": 0,
        "meta_classification_type": "U",
        "meta_norad_cat_id": 40718,
        "meta_element_set_no": 999,
        "meta_rev_at_epoch": 56060,
        "meta_bstar": 0.00055395616,
        "meta_mean_motion_dot": 4.426e-05,
        "meta_mean_motion_ddot": 0,
        "tle_line1": "1 40718U 15032D   25339.29287978  .00004426  00000+0  55396-3 0  9991",
        "tle_line2": "2 40718  97.6398 160.6652 0013927 206.4999 153.5504 14.82688912560600"
      },
      "geometry": {
        "type": "Point",
        "coordinates": [
          162.6176111404893,
          -7.782220925506632
        ]
      }
    },
    {
      "type": "Feature",
      "properties": {
        "norad_id": 40878,
        "name": "YAOGAN-27",
        "group": "resource",
        "lat": -13.741467219276673,
        "lon": -27.35138526944953,
        "alt_km": 1199.8902620771205,
        "timestamp": "2025-12-06T05:40:08.893622+00:00",
        "meta_object_name": "YAOGAN-27",
        "meta_object_id": "2015-040A",
        "meta_epoch": "2025-12-05T06:01:16.214304",
        "meta_mean_motion": 13.16059777,
        "meta_eccentricity": 0.00077096,
        "meta_inclination": 100.1005,
        "meta_ra_of_asc_node": 329.2099,
        "meta_arg_of_pericenter": 305.1343,
        "meta_mean_anomaly": 54.9048,
        "meta_ephemeris_type": 0,
        "meta_classification_type": "U",
        "meta_norad_cat_id": 40878,
        "meta_element_set_no": 999,
        "meta_rev_at_epoch": 49215,
        "meta_bstar": 0.00012368024,
        "meta_mean_motion_dot": 5e-08,
        "meta_mean_motion_ddot": 0,
        "tle_line1": "1 40878U 15040A   25339.25088211  .00000005  00000+0  12368-3 0  9993",
        "tle_line2": "2 40878 100.1005 329.2099 0007709 305.1343  54.9048 13.16059777492159"
      },
      "geometry": {
        "type": "Point",
        "coordinates": [
          -27.35138526944953,
          -13.741467219276673
        ]
      }
    }
  ]
}